ATLAS CENTAUR R/B       
1 06155U 72065B   25347.67342417  .00001971  00000+0  27326-3 0  9992
2 06155  35.0013  89.7274 0033828   5.4501 354.6563 14.77413365828536
SL-8 R/B                
1 08459U 75112B   25347.94355909  .00000377  00000+0  13287-3 0  9997
2 08459  74.0590 176.6439 0016615 287.8618  72.0724 14.38145814619544
SL-3 R/B                
1 10114U 77057B   25347.98824889  .00013687  00000+0  31243-3 0  9990
2 10114  97.5682 151.3645 0006557 227.7435 132.3257 15.42983798655100
SEASAT 1                
1 10967U 78064A   25347.85829604  .00000622  00000+0  21260-3 0  9994
2 10967 108.0117 305.3806 0001595 250.4563 109.6410 14.46063464494100
SL-14 R/B               
1 11267U 79011B   25347.99540762  .00000812  00000+0  77883-4 0  9995
2 11267  82.5233 177.8534 0015797 349.2560  10.8320 14.91771352516001
SL-8 R/B                
1 11574U 79089B   25348.01544968  .00000388  00000+0  12539-3 0  9991
2 11574  74.0691 249.6182 0014475  83.4407 276.8397 14.42284854423751
SL-14 R/B               
1 11672U 80005B   25347.61661445  .00000800  00000+0  78625-4 0  9993
2 11672  82.5148  28.8678 0017360  90.8164 269.5044 14.90793049463662
SL-8 R/B                
1 12139U 81003B   25347.99922772  .00016822  00000+0  44532-3 0  9995
2 12139  82.9305   9.0445 0279399 115.8841 247.1480 15.07087159301759
SL-3 R/B                
1 12465U 81046B   25347.92923866  .00012438  00000+0  31274-3 0  9990
2 12465  81.2335  32.5153 0018760 320.1398  39.8464 15.39638908425220
SL-3 R/B                
1 12904U 81103B   25347.97643147  .00007275  00000+0  33361-3 0  9990
2 12904  81.1591 313.9056 0011829 208.6890 151.3692 15.20253637960202
SL-3 R/B                
1 13068U 82013B   25347.95907684  .00005703  00000+0  25332-3 0  9993
2 13068  81.1751 261.1822 0024058 106.9032 253.4839 15.21101564391312
SL-3 R/B                
1 13154U 82039B   25347.96502402  .00003697  00000+0  22681-3 0  9991
2 13154  81.1716 314.6877 0029618 248.1675 111.6399 15.09535987368701
