CCSDS_OMM_VERS = 2.0
CREATION_DATE  = 
ORIGINATOR     = 

OBJECT_NAME    = ATLAS CENTAUR R/B
OBJECT_ID      = 1972-065B
CENTER_NAME    = EARTH
REF_FRAME      = TEME
TIME_SYSTEM    = UTC
MEAN_ELEMENT_THEORY = SGP/SGP4

EPOCH          = 2025-12-13T16:09:43.848288
MEAN_MOTION    = 14.77413365
ECCENTRICITY   = .00338285
INCLINATION    = 35.0013
RA_OF_ASC_NODE = 89.7274
ARG_OF_PERICENTER = 5.4501
MEAN_ANOMALY   = 354.6563

EPHEMERIS_TYPE = 0
CLASSIFICATION_TYPE = U
NORAD_CAT_ID   = 6155
ELEMENT_SET_NO = 999
REV_AT_EPOCH   = 82853
BSTAR          = .27325889E-3
MEAN_MOTION_DOT = .1971E-4
MEAN_MOTION_DDOT = 0

CCSDS_OMM_VERS = 2.0
CREATION_DATE  = 
ORIGINATOR     = 

OBJECT_NAME    = SL-8 R/B
OBJECT_ID      = 1975-112B
CENTER_NAME    = EARTH
REF_FRAME      = TEME
TIME_SYSTEM    = UTC
MEAN_ELEMENT_THEORY = SGP/SGP4

EPOCH          = 2025-12-13T22:38:43.505376
MEAN_MOTION    = 14.38145814
ECCENTRICITY   = .00166153
INCLINATION    = 74.0590
RA_OF_ASC_NODE = 176.6439
ARG_OF_PERICENTER = 287.8618
MEAN_ANOMALY   = 72.0724

EPHEMERIS_TYPE = 0
CLASSIFICATION_TYPE = U
NORAD_CAT_ID   = 8459
ELEMENT_SET_NO = 999
REV_AT_EPOCH   = 61954
BSTAR          = .13286756E-3
MEAN_MOTION_DOT = .377E-5
MEAN_MOTION_DDOT = 0

CCSDS_OMM_VERS = 2.0
CREATION_DATE  = 
ORIGINATOR     = 

OBJECT_NAME    = SL-3 R/B
OBJECT_ID      = 1977-057B
CENTER_NAME    = EARTH
REF_FRAME      = TEME
TIME_SYSTEM    = UTC
MEAN_ELEMENT_THEORY = SGP/SGP4

EPOCH          = 2025-12-13T23:43:04.704096
MEAN_MOTION    = 15.42983798
ECCENTRICITY   = .00065572
INCLINATION    = 97.5682
RA_OF_ASC_NODE = 151.3645
ARG_OF_PERICENTER = 227.7435
MEAN_ANOMALY   = 132.3257

EPHEMERIS_TYPE = 0
CLASSIFICATION_TYPE = U
NORAD_CAT_ID   = 10114
ELEMENT_SET_NO = 999
REV_AT_EPOCH   = 65510
BSTAR          = .31242708E-3
MEAN_MOTION_DOT = .13687E-3
MEAN_MOTION_DDOT = 0

CCSDS_OMM_VERS = 2.0
CREATION_DATE  = 
ORIGINATOR     = 

OBJECT_NAME    = SEASAT 1
OBJECT_ID      = 1978-064A
CENTER_NAME    = EARTH
REF_FRAME      = TEME
TIME_SYSTEM    = UTC
MEAN_ELEMENT_THEORY = SGP/SGP4

EPOCH          = 2025-12-13T20:35:56.777856
MEAN_MOTION    = 14.46063464
ECCENTRICITY   = .00015954
INCLINATION    = 108.0117
RA_OF_ASC_NODE = 305.3806
ARG_OF_PERICENTER = 250.4563
MEAN_ANOMALY   = 109.6410

EPHEMERIS_TYPE = 0
CLASSIFICATION_TYPE = U
NORAD_CAT_ID   = 10967
ELEMENT_SET_NO = 999
REV_AT_EPOCH   = 49410
BSTAR          = .21260405E-3
MEAN_MOTION_DOT = .622E-5
MEAN_MOTION_DDOT = 0

CCSDS_OMM_VERS = 2.0
CREATION_DATE  = 
ORIGINATOR     = 

OBJECT_NAME    = SL-14 R/B
OBJECT_ID      = 1979-011B
CENTER_NAME    = EARTH
REF_FRAME      = TEME
TIME_SYSTEM    = UTC
MEAN_ELEMENT_THEORY = SGP/SGP4

EPOCH          = 2025-12-13T23:53:23.218368
MEAN_MOTION    = 14.91771352
ECCENTRICITY   = .00157972
INCLINATION    = 82.5233
RA_OF_ASC_NODE = 177.8534
ARG_OF_PERICENTER = 349.2560
MEAN_ANOMALY   = 10.8320

EPHEMERIS_TYPE = 0
CLASSIFICATION_TYPE = U
NORAD_CAT_ID   = 11267
ELEMENT_SET_NO = 999
REV_AT_EPOCH   = 51600
BSTAR          = .7788288E-4
MEAN_MOTION_DOT = .812E-5
MEAN_MOTION_DDOT = 0

CCSDS_OMM_VERS = 2.0
CREATION_DATE  = 
ORIGINATOR     = 

OBJECT_NAME    = SL-8 R/B
OBJECT_ID      = 1979-089B
CENTER_NAME    = EARTH
REF_FRAME      = TEME
TIME_SYSTEM    = UTC
MEAN_ELEMENT_THEORY = SGP/SGP4

EPOCH          = 2025-12-14T00:22:14.852352
MEAN_MOTION    = 14.42284854
ECCENTRICITY   = .00144752
INCLINATION    = 74.0691
RA_OF_ASC_NODE = 249.6182
ARG_OF_PERICENTER = 83.4407
MEAN_ANOMALY   = 276.8397

EPHEMERIS_TYPE = 0
CLASSIFICATION_TYPE = U
NORAD_CAT_ID   = 11574
ELEMENT_SET_NO = 999
REV_AT_EPOCH   = 42375
BSTAR          = .1253947E-3
MEAN_MOTION_DOT = .388E-5
MEAN_MOTION_DDOT = 0

CCSDS_OMM_VERS = 2.0
CREATION_DATE  = 
ORIGINATOR     = 

OBJECT_NAME    = SL-14 R/B
OBJECT_ID      = 1980-005B
CENTER_NAME    = EARTH
REF_FRAME      = TEME
TIME_SYSTEM    = UTC
MEAN_ELEMENT_THEORY = SGP/SGP4

EPOCH          = 2025-12-13T14:47:55.488480
MEAN_MOTION    = 14.90793049
ECCENTRICITY   = .00173605
INCLINATION    = 82.5148
RA_OF_ASC_NODE = 28.8678
ARG_OF_PERICENTER = 90.8164
MEAN_ANOMALY   = 269.5044

EPHEMERIS_TYPE = 0
CLASSIFICATION_TYPE = U
NORAD_CAT_ID   = 11672
ELEMENT_SET_NO = 999
REV_AT_EPOCH   = 46366
BSTAR          = .7862473E-4
MEAN_MOTION_DOT = .8E-5
MEAN_MOTION_DDOT = 0

CCSDS_OMM_VERS = 2.0
CREATION_DATE  = 
ORIGINATOR     = 

OBJECT_NAME    = SL-8 R/B
OBJECT_ID      = 1981-003B
CENTER_NAME    = EARTH
REF_FRAME      = TEME
TIME_SYSTEM    = UTC
MEAN_ELEMENT_THEORY = SGP/SGP4

EPOCH          = 2025-12-13T23:58:53.275008
MEAN_MOTION    = 15.07087159
ECCENTRICITY   = .02793997
INCLINATION    = 82.9305
RA_OF_ASC_NODE = 9.0445
ARG_OF_PERICENTER = 115.8841
MEAN_ANOMALY   = 247.1480

EPHEMERIS_TYPE = 0
CLASSIFICATION_TYPE = U
NORAD_CAT_ID   = 12139
ELEMENT_SET_NO = 999
REV_AT_EPOCH   = 30175
BSTAR          = .44532455E-3
MEAN_MOTION_DOT = .16822E-3
MEAN_MOTION_DDOT = 0

CCSDS_OMM_VERS = 2.0
CREATION_DATE  = 
ORIGINATOR     = 

OBJECT_NAME    = SL-3 R/B
OBJECT_ID      = 1981-046B
CENTER_NAME    = EARTH
REF_FRAME      = TEME
TIME_SYSTEM    = UTC
MEAN_ELEMENT_THEORY = SGP/SGP4

EPOCH          = 2025-12-13T22:18:06.220224
MEAN_MOTION    = 15.39638908
ECCENTRICITY   = .001876
INCLINATION    = 81.2335
RA_OF_ASC_NODE = 32.5153
ARG_OF_PERICENTER = 320.1398
MEAN_ANOMALY   = 39.8464

EPHEMERIS_TYPE = 0
CLASSIFICATION_TYPE = U
NORAD_CAT_ID   = 12465
ELEMENT_SET_NO = 999
REV_AT_EPOCH   = 42522
BSTAR          = .31274361E-3
MEAN_MOTION_DOT = .12438E-3
MEAN_MOTION_DDOT = 0

CCSDS_OMM_VERS = 2.0
CREATION_DATE  = 
ORIGINATOR     = 

OBJECT_NAME    = SL-3 R/B
OBJECT_ID      = 1981-103B
CENTER_NAME    = EARTH
REF_FRAME      = TEME
TIME_SYSTEM    = UTC
MEAN_ELEMENT_THEORY = SGP/SGP4

EPOCH          = 2025-12-13T23:26:03.679008
MEAN_MOTION    = 15.20253637
ECCENTRICITY   = .0011829
INCLINATION    = 81.1591
RA_OF_ASC_NODE = 313.9056
ARG_OF_PERICENTER = 208.6890
MEAN_ANOMALY   = 151.3692

EPHEMERIS_TYPE = 0
CLASSIFICATION_TYPE = U
NORAD_CAT_ID   = 12904
ELEMENT_SET_NO = 999
REV_AT_EPOCH   = 96020
BSTAR          = .33360748E-3
MEAN_MOTION_DOT = .7275E-4
MEAN_MOTION_DDOT = 0

CCSDS_OMM_VERS = 2.0
CREATION_DATE  = 
ORIGINATOR     = 

OBJECT_NAME    = SL-3 R/B
OBJECT_ID      = 1982-013B
CENTER_NAME    = EARTH
REF_FRAME      = TEME
TIME_SYSTEM    = UTC
MEAN_ELEMENT_THEORY = SGP/SGP4

EPOCH          = 2025-12-13T23:01:04.238976
MEAN_MOTION    = 15.21101564
ECCENTRICITY   = .00240582
INCLINATION    = 81.1751
RA_OF_ASC_NODE = 261.1822
ARG_OF_PERICENTER = 106.9032
MEAN_ANOMALY   = 253.4839

EPHEMERIS_TYPE = 0
CLASSIFICATION_TYPE = U
NORAD_CAT_ID   = 13068
ELEMENT_SET_NO = 999
REV_AT_EPOCH   = 39131
BSTAR          = .25331752E-3
MEAN_MOTION_DOT = .5703E-4
MEAN_MOTION_DDOT = 0

CCSDS_OMM_VERS = 2.0
CREATION_DATE  = 
ORIGINATOR     = 

OBJECT_NAME    = SL-3 R/B
OBJECT_ID      = 1982-039B
CENTER_NAME    = EARTH
REF_FRAME      = TEME
TIME_SYSTEM    = UTC
MEAN_ELEMENT_THEORY = SGP/SGP4

EPOCH          = 2025-12-13T23:09:38.075328
MEAN_MOTION    = 15.09535987
ECCENTRICITY   = .00296181
INCLINATION    = 81.1716
RA_OF_ASC_NODE = 314.6877
ARG_OF_PERICENTER = 248.1675
MEAN_ANOMALY   = 111.6399

EPHEMERIS_TYPE = 0
CLASSIFICATION_TYPE = U
NORAD_CAT_ID   = 13154
ELEMENT_SET_NO = 999
REV_AT_EPOCH   = 36870
BSTAR          = .22681164E-3
MEAN_MOTION_DOT = .3697E-4
MEAN_MOTION_DDOT = 0

